{
    "links": {
        "self": "http://www.neowsapp.com/rest/v1/neo/3727344?api_key=iIulBulltgU6a56xZRHN4H3l9WmuAYTsLGpBGhQ2"
    },
    "id": "3727344",
    "neo_reference_id": "3727344",
    "name": "(2015 RO82)",
    "designation": "2015 RO82",
    "nasa_jpl_url": "http://ssd.jpl.nasa.gov/sbdb.cgi?sstr=3727344",
    "absolute_magnitude_h": 23.4,
    "estimated_diameter": {
        "kilometers": {
            "estimated_diameter_min": 0.0555334912,
            "estimated_diameter_max": 0.1241766613
        },
        "meters": {
            "estimated_diameter_min": 55.5334911581,
            "estimated_diameter_max": 124.1766612574
        },
        "miles": {
            "estimated_diameter_min": 0.0345069009,
            "estimated_diameter_max": 0.0771597762
        },
        "feet": {
            "estimated_diameter_min": 182.1964991311,
            "estimated_diameter_max": 407.4037573197
        }
    },
    "is_potentially_hazardous_asteroid": false,
    "close_approach_data": [
        {
            "close_approach_date": "2015-07-11",
            "close_approach_date_full": "2015-Jul-11 22:02",
            "epoch_date_close_approach": 1436652120000,
            "relative_velocity": {
                "kilometers_per_second": "7.6894837027",
                "kilometers_per_hour": "27682.1413297637",
                "miles_per_hour": "17200.6060945968"
            },
            "miss_distance": {
                "astronomical": "0.0568963122",
                "lunar": "22.1326654458",
                "kilometers": "8511567.115975014",
                "miles": "5288842.5589786332"
            },
            "orbiting_body": "Earth"
        }
    ],
    "orbital_data": {
        "orbit_id": "12",
        "orbit_determination_date": "2017-04-06 08:32:00",
        "first_observation_date": "2015-09-10",
        "last_observation_date": "2015-10-01",
        "data_arc_in_days": 21,
        "observations_used": 32,
        "orbit_uncertainty": "8",
        "minimum_orbit_intersection": ".000435715",
        "jupiter_tisserand_invariant": "3.974",
        "epoch_osculation": "2457280.5",
        "eccentricity": ".4627120148574716",
        "semi_major_axis": "1.76962730388025",
        "inclination": ".4058375135432544",
        "ascending_node_longitude": "127.4884131882523",
        "orbital_period": "859.8469252356928",
        "perihelion_distance": ".9507994885550242",
        "perihelion_argument": "146.2142418108834",
        "aphelion_distance": "2.588455119205475",
        "perihelion_time": "2457202.446342307513",
        "mean_anomaly": "32.67944089186923",
        "mean_motion": ".4186791735067499",
        "equinox": "J2000",
        "orbit_class": {
            "orbit_class_type": "APO",
            "orbit_class_description": "Near-Earth asteroid orbits which cross the Earth’s orbit similar to that of 1862 Apollo",
            "orbit_class_range": "a (semi-major axis) > 1.0 AU; q (perihelion) < 1.017 AU"
        }
    },
    "is_sentry_object": false
}